{
  "type": "FeatureCollection",
  "features": [
    {
      "type": "Feature",
      "properties": {
        "norad_id": 34036,
        "name": "COSMOS 2251 DEB",
        "group": "cosmos-2251-debris",
        "lat": 71.30471596410307,
        "lon": -76.91339947379686,
        "alt_km": 578.3220347177721,
        "timestamp": "2025-12-06T22:38:43.122592+00:00",
        "meta_object_name": "COSMOS 2251 DEB",
        "meta_object_id": "1993-036HX",
        "meta_epoch": "2025-12-06T10:57:05.599584",
        "meta_mean_motion": 14.94205177,
        "meta_eccentricity": 0.00140551,
        "meta_inclination": 74.0196,
        "meta_ra_of_asc_node": 161.9409,
        "meta_arg_of_pericenter": 196.4684,
        "meta_mean_anomaly": 163.6045,
        "meta_ephemeris_type": 0,
        "meta_classification_type": "U",
        "meta_norad_cat_id": 34036,
        "meta_element_set_no": 999,
        "meta_rev_at_epoch": 88476,
        "meta_bstar": 0.0069014103,
        "meta_mean_motion_dot": 0.00074878,
        "meta_mean_motion_ddot": 0,
        "tle_line1": "1 34036U 93036HX  25340.45631481  .00074878  00000+0  69014-2 0  9998",
        "tle_line2": "2 34036  74.0196 161.9409 0014055 196.4684 163.6045 14.94205177884766"
      },
      "geometry": {
        "type": "Point",
        "coordinates": [
          -76.91339947379686,
          71.30471596410307
        ]
      }
    },
    {
      "type": "Feature",
      "properties": {
        "norad_id": 34037,
        "name": "COSMOS 2251 DEB",
        "group": "cosmos-2251-debris",
        "lat": -29.864300079182286,
        "lon": 51.601229108881576,
        "alt_km": 811.9872151823711,
        "timestamp": "2025-12-06T22:38:43.122603+00:00",
        "meta_object_name": "COSMOS 2251 DEB",
        "meta_object_id": "1993-036HY",
        "meta_epoch": "2025-12-06T12:44:59.605152",
        "meta_mean_motion": 14.34640042,
        "meta_eccentricity": 0.00522534,
        "meta_inclination": 74.0527,
        "meta_ra_of_asc_node": 61.8052,
        "meta_arg_of_pericenter": 113.7081,
        "meta_mean_anomaly": 246.9566,
        "meta_ephemeris_type": 0,
        "meta_classification_type": "U",
        "meta_norad_cat_id": 34037,
        "meta_element_set_no": 999,
        "meta_rev_at_epoch": 87628,
        "meta_bstar": 0.0010346895,
        "meta_mean_motion_dot": 2.947e-05,
        "meta_mean_motion_ddot": 0,
        "tle_line1": "1 34037U 93036HY  25340.53124543  .00002947  00000+0  10347-2 0  9997",
        "tle_line2": "2 34037  74.0527  61.8052 0052253 113.7081 246.9566 14.34640042876281"
      },
      "geometry": {
        "type": "Point",
        "coordinates": [
          51.601229108881576,
          -29.864300079182286
        ]
      }
    },
    {
      "type": "Feature",
      "properties": {
        "norad_id": 34040,
        "name": "COSMOS 2251 DEB",
        "group": "cosmos-2251-debris",
        "lat": 15.404514321518127,
        "lon": -109.10719596866778,
        "alt_km": 1176.5269549293535,
        "timestamp": "2025-12-06T22:38:43.122613+00:00",
        "meta_object_name": "COSMOS 2251 DEB",
        "meta_object_id": "1993-036JB",
        "meta_epoch": "2025-12-06T14:51:09.159264",
        "meta_mean_motion": 13.68364807,
        "meta_eccentricity": 0.03428678,
        "meta_inclination": 73.9558,
        "meta_ra_of_asc_node": 75.9766,
        "meta_arg_of_pericenter": 30.612,
        "meta_mean_anomaly": 331.4517,
        "meta_ephemeris_type": 0,
        "meta_classification_type": "U",
        "meta_norad_cat_id": 34040,
        "meta_element_set_no": 999,
        "meta_rev_at_epoch": 83516,
        "meta_bstar": 0.00059436298,
        "meta_mean_motion_dot": 7.44e-06,
        "meta_mean_motion_ddot": 0,
        "tle_line1": "1 34040U 93036JB  25340.61885601  .00000744  00000+0  59436-3 0  9995",
        "tle_line2": "2 34040  73.9558  75.9766 0342867  30.6120 331.4517 13.68364807835165"
      },
      "geometry": {
        "type": "Point",
        "coordinates": [
          -109.10719596866778,
          15.404514321518127
        ]
      }
    },
    {
      "type": "Feature",
      "properties": {
        "norad_id": 34045,
        "name": "COSMOS 2251 DEB",
        "group": "cosmos-2251-debris",
        "lat": 24.8478577513996,
        "lon": -30.945618798692408,
        "alt_km": 760.0660569129459,
        "timestamp": "2025-12-06T22:38:43.122623+00:00",
        "meta_object_name": "COSMOS 2251 DEB",
        "meta_object_id": "1993-036JG",
        "meta_epoch": "2025-12-06T05:52:31.970208",
        "meta_mean_motion": 14.34063286,
        "meta_eccentricity": 0.00254336,
        "meta_inclination": 74.0387,
        "meta_ra_of_asc_node": 322.7164,
        "meta_arg_of_pericenter": 48.1522,
        "meta_mean_anomaly": 332.0795,
        "meta_ephemeris_type": 0,
        "meta_classification_type": "U",
        "meta_norad_cat_id": 34045,
        "meta_element_set_no": 999,
        "meta_rev_at_epoch": 87940,
        "meta_bstar": 0.00018331438,
        "meta_mean_motion_dot": 4.88e-06,
        "meta_mean_motion_ddot": 0,
        "tle_line1": "1 34045U 93036JG  25340.24481447  .00000488  00000+0  18331-3 0  9993",
        "tle_line2": "2 34045  74.0387 322.7164 0025433  48.1522 332.0795 14.34063286879405"
      },
      "geometry": {
        "type": "Point",
        "coordinates": [
          -30.945618798692408,
          24.8478577513996
        ]
      }
    },
    {
      "type": "Feature",
      "properties": {
        "norad_id": 34046,
        "name": "COSMOS 2251 DEB",
        "group": "cosmos-2251-debris",
        "lat": 58.68471821346983,
        "lon": 173.2355100039371,
        "alt_km": 679.1567816785982,
        "timestamp": "2025-12-06T22:38:43.122633+00:00",
        "meta_object_name": "COSMOS 2251 DEB",
        "meta_object_id": "1993-036JH",
        "meta_epoch": "2025-12-06T10:48:52.172640",
        "meta_mean_motion": 14.46397412,
        "meta_eccentricity": 0.0074703,
        "meta_inclination": 74.0398,
        "meta_ra_of_asc_node": 22.2157,
        "meta_arg_of_pericenter": 107.5091,
        "meta_mean_anomaly": 323.8091,
        "meta_ephemeris_type": 0,
        "meta_classification_type": "U",
        "meta_norad_cat_id": 34046,
        "meta_element_set_no": 999,
        "meta_rev_at_epoch": 87735,
        "meta_bstar": 0.0020752421,
        "meta_mean_motion_dot": 7.698e-05,
        "meta_mean_motion_ddot": 0,
        "tle_line1": "1 34046U 93036JH  25340.45060385  .00007698  00000+0  20752-2 0  9990",
        "tle_line2": "2 34046  74.0398  22.2157 0074703 107.5091 323.8091 14.46397412877350"
      },
      "geometry": {
        "type": "Point",
        "coordinates": [
          173.2355100039371,
          58.68471821346983
        ]
      }
    },
    {
      "type": "Feature",
      "properties": {
        "norad_id": 34050,
        "name": "COSMOS 2251 DEB",
        "group": "cosmos-2251-debris",
        "lat": -39.155534800509365,
        "lon": 6.564271977537797,
        "alt_km": 1004.5974302155582,
        "timestamp": "2025-12-06T22:38:43.122642+00:00",
        "meta_object_name": "COSMOS 2251 DEB",
        "meta_object_id": "1993-036JM",
        "meta_epoch": "2025-12-06T09:09:45.893952",
        "meta_mean_motion": 13.96165357,
        "meta_eccentricity": 0.02146149,
        "meta_inclination": 74.0887,
        "meta_ra_of_asc_node": 20.9585,
        "meta_arg_of_pericenter": 86.9094,
        "meta_mean_anomaly": 291.642,
        "meta_ephemeris_type": 0,
        "meta_classification_type": "U",
        "meta_norad_cat_id": 34050,
        "meta_element_set_no": 999,
        "meta_rev_at_epoch": 85343,
        "meta_bstar": 0.00092583138,
        "meta_mean_motion_dot": 1.522e-05,
        "meta_mean_motion_ddot": 0,
        "tle_line1": "1 34050U 93036JM  25340.38178118  .00001522  00000+0  92583-3 0  9993",
        "tle_line2": "2 34050  74.0887  20.9585 0214614  86.9094 291.6420 13.96165357853434"
      },
      "geometry": {
        "type": "Point",
        "coordinates": [
          6.564271977537797,
          -39.155534800509365
        ]
      }
    },
    {
      "type": "Feature",
      "properties": {
        "norad_id": 34053,
        "name": "COSMOS 2251 DEB",
        "group": "cosmos-2251-debris",
        "lat": -15.41893413796754,
        "lon": 76.09637549487519,
        "alt_km": 1362.05282961998,
        "timestamp": "2025-12-06T22:38:43.122653+00:00",
        "meta_object_name": "COSMOS 2251 DEB",
        "meta_object_id": "1993-036JQ",
        "meta_epoch": "2025-12-06T03:54:27.965952",
        "meta_mean_motion": 13.49144774,
        "meta_eccentricity": 0.04218381,
        "meta_inclination": 73.8444,
        "meta_ra_of_asc_node": 252.7687,
        "meta_arg_of_pericenter": 42.4184,
        "meta_mean_anomaly": 320.8724,
        "meta_ephemeris_type": 0,
        "meta_classification_type": "U",
        "meta_norad_cat_id": 34053,
        "meta_element_set_no": 999,
        "meta_rev_at_epoch": 82595,
        "meta_bstar": 0.0012959528,
        "meta_mean_motion_dot": 1.39e-05,
        "meta_mean_motion_ddot": 0,
        "tle_line1": "1 34053U 93036JQ  25340.16282368  .00001390  00000+0  12960-2 0  9998",
        "tle_line2": "2 34053  73.8444 252.7687 0421838  42.4184 320.8724 13.49144774825952"
      },
      "geometry": {
        "type": "Point",
        "coordinates": [
          76.09637549487519,
          -15.41893413796754
        ]
      }
    }
  ]
}